[{"OBJECT_NAME":"ONEWEB-0333","OBJECT_ID":"2021-083P","EPOCH":"2025-10-14T05:44:00.165984","MEAN_MOTION":13.13469095,"ECCENTRICITY":0.00017933,"INCLINATION":87.9035,"RA_OF_ASC_NODE":9.1356,"ARG_OF_PERICENTER":103.0871,"MEAN_ANOMALY":257.0459,"EPHEMERIS_TYPE":0,"CLASSIFICATION_TYPE":"U","NORAD_CAT_ID":49199,"ELEMENT_SET_NO":999,"REV_AT_EPOCH":19862,"BSTAR":0.00012517457,"MEAN_MOTION_DOT":5.8e-7,"MEAN_MOTION_DDOT":0},{"OBJECT_NAME":"ONEWEB-0334","OBJECT_ID":"2021-083Q","EPOCH":"2025-10-14T03:50:43.919520","MEAN_MOTION":13.20769445,"ECCENTRICITY":0.00018865,"INCLINATION":87.9214,"RA_OF_ASC_NODE":323.5293,"ARG_OF_PERICENTER":126.6123,"MEAN_ANOMALY":233.5184,"EPHEMERIS_TYPE":0,"CLASSIFICATION_TYPE":"U","NORAD_CAT_ID":49200,"ELEMENT_SET_NO":999,"REV_AT_EPOCH":20431,"BSTAR":-8.6781564e-5,"MEAN_MOTION_DOT":-2.2e-7,"MEAN_MOTION_DDOT":0},{"OBJECT_NAME":"ONEWEB-0335","OBJECT_ID":"2021-083R","EPOCH":"2025-10-14T05:36:41.310144","MEAN_MOTION":13.13469378,"ECCENTRICITY":0.00018277,"INCLINATION":87.9039,"RA_OF_ASC_NODE":9.1243,"ARG_OF_PERICENTER":94.6693,"MEAN_ANOMALY":265.4644,"EPHEMERIS_TYPE":0,"CLASSIFICATION_TYPE":"U","NORAD_CAT_ID":49201,"ELEMENT_SET_NO":999,"REV_AT_EPOCH":19863,"BSTAR":0.00035322201,"MEAN_MOTION_DOT":1.42e-6,"MEAN_MOTION_DDOT":0},{"OBJECT_NAME":"ONEWEB-0336","OBJECT_ID":"2021-083S","EPOCH":"2025-10-14T06:44:56.728896","MEAN_MOTION":13.13469519,"ECCENTRICITY":0.0001936,"INCLINATION":87.9039,"RA_OF_ASC_NODE":9.1098,"ARG_OF_PERICENTER":88.0777,"MEAN_ANOMALY":272.0574,"EPHEMERIS_TYPE":0,"CLASSIFICATION_TYPE":"U","NORAD_CAT_ID":49202,"ELEMENT_SET_NO":999,"REV_AT_EPOCH":19863,"BSTAR":0.0001445688,"MEAN_MOTION_DOT":6.6e-7,"MEAN_MOTION_DDOT":0},{"OBJECT_NAME":"ONEWEB-0337","OBJECT_ID":"2021-083T","EPOCH":"2025-10-14T06:59:22.759296","MEAN_MOTION":13.13470303,"ECCENTRICITY":0.00020293,"INCLINATION":87.9047,"RA_OF_ASC_NODE":9.115,"ARG_OF_PERICENTER":96.4093,"MEAN_ANOMALY":263.7268,"EPHEMERIS_TYPE":0,"CLASSIFICATION_TYPE":"U","NORAD_CAT_ID":49203,"ELEMENT_SET_NO":999,"REV_AT_EPOCH":19863,"BSTAR":0.00077836056,"MEAN_MOTION_DOT":2.97e-6,"MEAN_MOTION_DDOT":0},{"OBJECT_NAME":"ONEWEB-0338","OBJECT_ID":"2021-083U","EPOCH":"2025-10-14T03:14:23.715744","MEAN_MOTION":13.20772133,"ECCENTRICITY":0.00018887,"INCLINATION":87.922,"RA_OF_ASC_NODE":323.5351,"ARG_OF_PERICENTER":105.1581,"MEAN_ANOMALY":254.9761,"EPHEMERIS_TYPE":0,"CLASSIFICATION_TYPE":"U","NORAD_CAT_ID":49204,"ELEMENT_SET_NO":999,"REV_AT_EPOCH":20433,"BSTAR":0.00012895652,"MEAN_MOTION_DOT":6.5e-7,"MEAN_MOTION_DDOT":0},{"OBJECT_NAME":"ONEWEB-0339","OBJECT_ID":"2021-083V","EPOCH":"2025-10-14T07:11:45.336192","MEAN_MOTION":13.13471111,"ECCENTRICITY":0.00019501,"INCLINATION":87.9044,"RA_OF_ASC_NODE":9.0963,"ARG_OF_PERICENTER":103.8785,"MEAN_ANOMALY":256.2562,"EPHEMERIS_TYPE":0,"CLASSIFICATION_TYPE":"U","NORAD_CAT_ID":49205,"ELEMENT_SET_NO":999,"REV_AT_EPOCH":19861,"BSTAR":0.00092047618,"MEAN_MOTION_DOT":3.49e-6,"MEAN_MOTION_DDOT":0},{"OBJECT_NAME":"ONEWEB-0340","OBJECT_ID":"2021-083W","EPOCH":"2025-10-14T07:03:44.910720","MEAN_MOTION":13.18687233,"ECCENTRICITY":0.00017574,"INCLINATION":87.9234,"RA_OF_ASC_NODE":24.2812,"ARG_OF_PERICENTER":98.1387,"MEAN_ANOMALY":261.9945,"EPHEMERIS_TYPE":0,"CLASSIFICATION_TYPE":"U","NORAD_CAT_ID":49206,"ELEMENT_SET_NO":999,"REV_AT_EPOCH":19756,"BSTAR":5.8153192e-5,"MEAN_MOTION_DOT":3.6e-7,"MEAN_MOTION_DDOT":0},{"OBJECT_NAME":"ONEWEB-0341","OBJECT_ID":"2021-083X","EPOCH":"2025-10-14T07:13:14.543328","MEAN_MOTION":13.18687104,"ECCENTRICITY":0.00023193,"INCLINATION":87.9228,"RA_OF_ASC_NODE":24.2925,"ARG_OF_PERICENTER":97.4498,"MEAN_ANOMALY":262.6898,"EPHEMERIS_TYPE":0,"CLASSIFICATION_TYPE":"U","NORAD_CAT_ID":49207,"ELEMENT_SET_NO":999,"REV_AT_EPOCH":19758,"BSTAR":0.00022592743,"MEAN_MOTION_DOT":1.02e-6,"MEAN_MOTION_DDOT":0},{"OBJECT_NAME":"ONEWEB-0342","OBJECT_ID":"2021-083Y","EPOCH":"2025-10-14T03:23:27.807648","MEAN_MOTION":13.20768972,"ECCENTRICITY":0.00018688,"INCLINATION":87.9221,"RA_OF_ASC_NODE":323.502,"ARG_OF_PERICENTER":99.3597,"MEAN_ANOMALY":260.7748,"EPHEMERIS_TYPE":0,"CLASSIFICATION_TYPE":"U","NORAD_CAT_ID":49208,"ELEMENT_SET_NO":999,"REV_AT_EPOCH":20430,"BSTAR":-9.5349413e-5,"MEAN_MOTION_DOT":-2.6e-7,"MEAN_MOTION_DDOT":0},{"OBJECT_NAME":"ONEWEB-0343","OBJECT_ID":"2021-083Z","EPOCH":"2025-10-14T07:22:50.859840","MEAN_MOTION":13.17468727,"ECCENTRICITY":0.00025944,"INCLINATION":87.9232,"RA_OF_ASC_NODE":24.2813,"ARG_OF_PERICENTER":110.0822,"MEAN_ANOMALY":250.0589,"EPHEMERIS_TYPE":0,"CLASSIFICATION_TYPE":"U","NORAD_CAT_ID":49209,"ELEMENT_SET_NO":999,"REV_AT_EPOCH":19763,"BSTAR":0.10219265,"MEAN_MOTION_DOT":0.00039758,"MEAN_MOTION_DDOT":0},{"OBJECT_NAME":"ONEWEB-0344","OBJECT_ID":"2021-083AA","EPOCH":"2025-10-14T07:04:26.253984","MEAN_MOTION":13.13470993,"ECCENTRICITY":0.00022365,"INCLINATION":87.9036,"RA_OF_ASC_NODE":9.1339,"ARG_OF_PERICENTER":96.6304,"MEAN_ANOMALY":263.508,"EPHEMERIS_TYPE":0,"CLASSIFICATION_TYPE":"U","NORAD_CAT_ID":49210,"ELEMENT_SET_NO":999,"REV_AT_EPOCH":19861,"BSTAR":0.00085573154,"MEAN_MOTION_DOT":3.25e-6,"MEAN_MOTION_DDOT":0},{"OBJECT_NAME":"ONEWEB-0345","OBJECT_ID":"2021-083AB","EPOCH":"2025-10-14T06:52:15.951936","MEAN_MOTION":13.13470329,"ECCENTRICITY":0.00022471,"INCLINATION":87.9045,"RA_OF_ASC_NODE":9.0908,"ARG_OF_PERICENTER":98.1738,"MEAN_ANOMALY":261.9646,"EPHEMERIS_TYPE":0,"CLASSIFICATION_TYPE":"U","NORAD_CAT_ID":49211,"ELEMENT_SET_NO":999,"REV_AT_EPOCH":19862,"BSTAR":0.0002291042,"MEAN_MOTION_DOT":9.6e-7,"MEAN_MOTION_DDOT":0},{"OBJECT_NAME":"ONEWEB-0346","OBJECT_ID":"2021-083AC","EPOCH":"2025-10-14T07:20:21.726528","MEAN_MOTION":13.18685186,"ECCENTRICITY":0.00015792,"INCLINATION":87.9225,"RA_OF_ASC_NODE":24.2991,"ARG_OF_PERICENTER":81.1514,"MEAN_ANOMALY":278.9797,"EPHEMERIS_TYPE":0,"CLASSIFICATION_TYPE":"U","NORAD_CAT_ID":49212,"ELEMENT_SET_NO":999,"REV_AT_EPOCH":19757,"BSTAR":0.00014215382,"MEAN_MOTION_DOT":6.9e-7,"MEAN_MOTION_DDOT":0},{"OBJECT_NAME":"ONEWEB-0348","OBJECT_ID":"2021-083AD","EPOCH":"2025-10-14T03:09:49.863168","MEAN_MOTION":13.20769947,"ECCENTRICITY":0.00022166,"INCLINATION":87.9217,"RA_OF_ASC_NODE":323.5152,"ARG_OF_PERICENTER":81.5083,"MEAN_ANOMALY":278.6302,"EPHEMERIS_TYPE":0,"CLASSIFICATION_TYPE":"U","NORAD_CAT_ID":49213,"ELEMENT_SET_NO":999,"REV_AT_EPOCH":20433,"BSTAR":8.8194337e-5,"MEAN_MOTION_DOT":4.9e-7,"MEAN_MOTION_DDOT":0},{"OBJECT_NAME":"ONEWEB-0350","OBJECT_ID":"2021-083AE","EPOCH":"2025-10-14T07:05:39.327648","MEAN_MOTION":13.13471789,"ECCENTRICITY":0.00021055,"INCLINATION":87.9055,"RA_OF_ASC_NODE":9.0845,"ARG_OF_PERICENTER":96.5084,"MEAN_ANOMALY":263.6285,"EPHEMERIS_TYPE":0,"CLASSIFICATION_TYPE":"U","NORAD_CAT_ID":49214,"ELEMENT_SET_NO":999,"REV_AT_EPOCH":19865,"BSTAR":0.00096278614,"MEAN_MOTION_DOT":3.64e-6,"MEAN_MOTION_DDOT":0},{"OBJECT_NAME":"ONEWEB-0351","OBJECT_ID":"2021-083AF","EPOCH":"2025-10-14T03:00:33.350400","MEAN_MOTION":13.20772402,"ECCENTRICITY":0.00024201,"INCLINATION":87.9223,"RA_OF_ASC_NODE":323.5069,"ARG_OF_PERICENTER":115.821,"MEAN_ANOMALY":244.3174,"EPHEMERIS_TYPE":0,"CLASSIFICATION_TYPE":"U","NORAD_CAT_ID":49215,"ELEMENT_SET_NO":999,"REV_AT_EPOCH":20429,"BSTAR":0.00026670914,"MEAN_MOTION_DOT":1.21e-6,"MEAN_MOTION_DDOT":0}]
