ONEWEB-0333             
1 49199U 21083P   25287.23889081  .00000058  00000+0  12517-3 0  9990
2 49199  87.9035   9.1356 0001793 103.0871 257.0459 13.13469095198629
ONEWEB-0334             
1 49200U 21083Q   25287.16023055 -.00000022  00000+0 -86782-4 0  9995
2 49200  87.9214 323.5293 0001886 126.6123 233.5184 13.20769445204316
ONEWEB-0335             
1 49201U 21083R   25287.23381146  .00000142  00000+0  35322-3 0  9996
2 49201  87.9039   9.1243 0001827  94.6693 265.4644 13.13469378198631
ONEWEB-0336             
1 49202U 21083S   25287.28121214  .00000066  00000+0  14457-3 0  9991
2 49202  87.9039   9.1098 0001936  88.0777 272.0574 13.13469519198634
ONEWEB-0337             
1 49203U 21083T   25287.29123564  .00000297  00000+0  77836-3 0  9999
2 49203  87.9047   9.1150 0002029  96.4093 263.7268 13.13470303198631
ONEWEB-0338             
1 49204U 21083U   25287.13499671  .00000065  00000+0  12896-3 0  9996
2 49204  87.9220 323.5351 0001888 105.1581 254.9761 13.20772133204332
ONEWEB-0339             
1 49205U 21083V   25287.29983028  .00000349  00000+0  92048-3 0  9990
2 49205  87.9044   9.0963 0001950 103.8785 256.2562 13.13471111198614
ONEWEB-0340             
1 49206U 21083W   25287.29426980  .00000036  00000+0  58153-4 0  9993
2 49206  87.9234  24.2812 0001757  98.1387 261.9945 13.18687233197567
ONEWEB-0341             
1 49207U 21083X   25287.30086277  .00000102  00000+0  22593-3 0  9999
2 49207  87.9228  24.2925 0002319  97.4498 262.6898 13.18687104197580
ONEWEB-0342             
1 49208U 21083Y   25287.14129407 -.00000026  00000+0 -95349-4 0  9992
2 49208  87.9221 323.5020 0001868  99.3597 260.7748 13.20768972204302
ONEWEB-0343             
1 49209U 21083Z   25287.30753310  .00039758  00000+0  10219+0 0  9997
2 49209  87.9232  24.2813 0002594 110.0822 250.0589 13.17468727197632
ONEWEB-0344             
1 49210U 21083AA  25287.29474831  .00000325  00000+0  85573-3 0  9992
2 49210  87.9036   9.1339 0002236  96.6304 263.5080 13.13470993198616
ONEWEB-0345             
1 49211U 21083AB  25287.28629574  .00000096  00000+0  22910-3 0  9999
2 49211  87.9045   9.0908 0002247  98.1738 261.9646 13.13470329198622
ONEWEB-0346             
1 49212U 21083AC  25287.30580702  .00000069  00000+0  14215-3 0  9991
2 49212  87.9225  24.2991 0001579  81.1514 278.9797 13.18685186197577
ONEWEB-0348             
1 49213U 21083AD  25287.13182712  .00000049  00000+0  88194-4 0  9998
2 49213  87.9217 323.5152 0002216  81.5083 278.6302 13.20769947204330
ONEWEB-0350             
1 49214U 21083AE  25287.29559407  .00000364  00000+0  96279-3 0  9997
2 49214  87.9055   9.0845 0002105  96.5084 263.6285 13.13471789198657
ONEWEB-0351             
1 49215U 21083AF  25287.12538600  .00000121  00000+0  26671-3 0  9992
2 49215  87.9223 323.5069 0002420 115.8210 244.3174 13.20772402204298
